GONETS-M 20             
1 47227U 20091A   26107.31149521  .00000018  00000+0  56026-4 0  9997
2 47227  82.5080 340.2878 0020511 315.8939  44.0504 12.42891771243510
GONETS-M 21             
1 47228U 20091B   26107.28501015  .00000021  00000+0  82575-4 0  9996
2 47228  82.5002 339.0487 0014556 331.5232  28.5051 12.42883011243501
GONETS-M 22             
1 47229U 20091C   26107.25837112 -.00000077  00000+0 -62593-3 0  9994
2 47229  82.5061 339.9355 0021291 311.0631  48.8608 12.42889209243452
CUBEL                   
1 47448U 21006AM  26107.10384515  .00005720  00000+0  14533-3 0  9991
2 47448  97.2398 158.3066 0007690  46.2017 313.9864 15.39998691290351
ASTROCAST-0103          
1 47487U 21006CC  26107.18083327  .00385097  00000+0  14540-2 0  9994
2 47487  97.2544 178.5230 0002843 147.3364 212.8084 15.86783806291597
ARKTIKA-M 1             
1 47719U 21016A   26104.19163249 -.00000023  00000+0  00000+0 0  9990
2 47719  63.2205  66.8463 7262707 269.6395  15.0340  2.00612377 37508
STARLINK-2342           
1 47883U 21021Z   26107.11408992  .00081558  00000+0  14034-2 0  9996
2 47883  53.1535  84.7661 0004852  81.2946 278.8613 15.50405397282371
GRUS-1B                 
1 47934U 21022C   26107.29461978  .00001237  00000+0  10700-3 0  9999
2 47934  97.5468 352.4704 0017330 158.3675 201.8284 14.98840468276778
2021-022F               
1 47937U 21022F   26107.26668892  .00005429  00000+0  17764-3 0  9997
2 47937  97.3952   8.0439 0008400 318.1955  41.8644 15.32084603280385
UNISAT-7                
1 47945U 21022P   26107.00114025  .00008914  00000+0  23396-3 0  9992
2 47945  97.3945  11.3501 0007394 300.9592  59.0926 15.38850131280444
2021-022X               
1 47953U 21022X   26107.28848769  .00044762  00000+0  46353-3 0  9999
2 47953  97.3956  20.9546 0001928 248.8656 111.2397 15.64587277280954
2021-022AC              
1 47958U 21022AC  26107.29331611  .00124384  00000+0  62708-3 0  9999
2 47958  97.3865  24.5760 0003479 159.8544 200.2863 15.81286165280303
GLOBAL-9                
1 47971U 21023G   26106.65074984  .00012895  00000+0  28180-3 0  9990
2 47971  44.9818 235.7545 0004629 285.5058  74.5319 15.44218114285420
AII-BRAVO               
1 48270U 21034C   26107.11420213  .00003052  00000+0  23127-3 0  9998
2 48270  97.5650 163.4210 0006715 110.8948 249.2997 15.02987760270446
TYVAK-182A              
1 48271U 21034D   26107.13099891  .00002724  00000+0  19322-3 0  9992
2 48271  97.5769 167.1201 0006396 165.8804 194.2602 15.05582094270643
CSS (TIANHE)            
1 48274U 21035A   26107.91806909  .00018314  00000+0  20312-3 0  9991
2 48274  41.4680 329.1261 0006144 228.7373 131.2938 15.62493038283743
TYVAK-0130              
1 48606U 21041BF  26106.85392077  .00004348  00000+0  17624-3 0  9999
2 48606  52.9939 310.7338 0009257 346.0088  14.0651 15.26704897271017
HAIYANG-2D              
1 48621U 21043A   26107.27568627 -.00000217  00000+0 -12309-3 0  9999
2 48621  65.9961  96.3482 0011372 275.7490  84.2281 13.83373790248125
2021-050D               
1 48843U 21050D   26107.29898465  .00002228  00000+0  98500-4 0  9991
2 48843  97.3358 184.7449 0007177 114.9755 245.2228 15.22703913269695
TYVAK-0173              
1 48892U 21059P   26107.21876854  .00001208  00000+0  15750-3 0  9996
2 48892  96.0079 198.7373 0007737 228.0327 132.0232 14.81678889259212
MANDRAKE 2 ABLE         
1 48907U 21059AE  26106.47516734  .00012689  00000+0  20857-3 0  9997
2 48907  97.7046 291.6700 0004923 202.9576 157.1457 15.52525384267541
MANDRAKE 2 BAKER        
1 48908U 21059AF  26106.96096199  .00016687  00000+0  23690-3 0  9990
2 48908  97.7026 294.6644 0003778 195.2140 164.9001 15.56501234267765
PACE-1                  
1 48909U 21059AG  26106.78627740  .00039894  00000+0  31646-3 0  9998
2 48909  97.6822 298.4404 0003383 170.3581 189.7746 15.71189360268132
YAM-3                   
1 48915U 21059AN  26107.29869615  .00007569  00000+0  15084-3 0  9993
2 48915  97.6988 290.3403 0004813 200.8694 159.2359 15.47197216267576
FARADAY_PHOENIX         
1 48924U 21059AX  26107.09714202  .00054726  00000+0  52640-3 0  9998
2 48924  97.6882 298.9628 0006417 192.3620 167.7483 15.66382665268060
DEMO8 (TENZING)         
1 48951U 21059CA  26106.48100156  .00011919  00000+0  19508-3 0  9990
2 48951  97.7046 295.3085 0007052 200.2868 159.8105 15.52649777267720
NAPA-2                  
1 48963U 21059CN  26107.23325237  .00091828  00000+0  52460-3 0  9997
2 48963  97.6806 298.7949 0004133 186.3075 173.8140 15.78610319268143
JILIN-1 GAOFEN 3D03     
1 49006U 21061D   26107.39822992  .00879880  46686-3  79774-3 0  9999
2 49006  97.2807 187.3934 0010676 246.5262 113.4901 16.12596602266704
XINGSHIDAI 10           
1 49007U 21061E   26107.29403341  .00439250  84746-4  86980-3 0  9992
2 49007  97.2875 186.6458 0006743 225.8848 134.1877 15.99936163266642
FENGYUN 3E              
1 49008U 21062A   26107.31813928  .00000038  00000+0  38488-4 0  9998
2 49008  98.7507 111.4029 0000433 261.4457  98.6670 14.19899136247949
ISS (NAUKA)             
1 49044U 21066A   26107.16713328  .00006923  00000+0  13461-3 0  9990
2 49044  51.6328 242.0950 0006547 316.4598  43.5873 15.48795320561532
STARLINK-3100           
1 49144U 21082Q   26107.22194353 -.00001248  00000+0 -96822-4 0  9997
2 49144  70.0009 197.2898 0003376 268.3226  91.7546 14.98336045251757
CUTE                    
1 49263U 21088D   26107.24478648  .00062671  00000+0  45618-3 0  9990
2 49263  97.4207 201.7751 0003114 192.1421 167.9768 15.73141860252927
2021-091B               
1 49316U 21091B   26107.29908146  .00001115  00000+0  57705-4 0  9996
2 49316  97.4483 295.8107 0011817 251.1841 108.8112 15.18235601249741
SDGSAT 1                
1 49387U 21100A   26107.26135469  .00001844  00000+0  89595-4 0  9993
2 49387  97.2702 156.4620 0009163 137.5135 222.6811 15.19610569246667
TEIKYOSAT-4 (OORURI)    
1 49396U 21102B   26107.06417337  .00000895  00000+0  59884-4 0  9993
2 49396  97.3733 138.9155 0013195 137.9707 222.2537 15.09287982243508
Z-SAT                   
1 49399U 21102E   26107.22461425  .00001808  00000+0  92386-4 0  9990
2 49399  97.3394 144.3996 0018523  99.5099 260.8229 15.17789891244192
HIBARI                  
1 49400U 21102F   26107.09507404  .00006857  00000+0  23455-3 0  9995
2 49400  97.3305 153.7318 0013211  63.8324 296.4274 15.30489954244842
KOSEN-1                 
1 49402U 21102H   26107.10913322  .00005014  00000+0  19727-3 0  9990
2 49402  97.3253 150.4712 0015415  67.6571 292.6300 15.25984707244705
GLOBAL-14               
1 49469U 21106A   26106.83752580  .00015128  00000+0  28879-3 0  9998
2 49469  42.0044 294.8668 0015855 313.5050  46.4474 15.47729659248617
GAOFEN-3 02             
1 49495U 21109A   26107.27375087  .00000127  00000+0  51842-4 0  9992
2 49495  98.4112 116.2307 0002968 146.8167 213.3209 14.42215657231537
GLOBAL-12               
1 49772U 21115BA  26107.14866764  .00018295  00000+0  32556-3 0  9995
2 49772  53.1968 337.2632 0003174 158.8677 201.2464 15.50228831246428
GLOBAL-13               
1 49773U 21115BB  26107.05029834  .00012239  00000+0  27461-3 0  9996
2 49773  53.1995 344.7172 0000149 323.5044  36.5953 15.43822331246316
GLOBAL-17               
1 49949U 21120A   26107.22489070  .00016308  00000+0  29589-3 0  9992
2 49949  41.9957  51.6968 0012421 194.0343 166.0157 15.49191218245436
GLOBAL-16               
1 49950U 21120B   26107.22684286  .00014719  00000+0  28510-3 0  9997
2 49950  41.9960  54.3638 0010191 185.9758 174.0964 15.47403423245399
XW-3 (CAS-9)            
1 50466U 21131B   26107.31152402  .00000294  00000+0  10451-3 0  9991
2 50466  98.4952 200.0421 0002862 284.5574  75.5297 14.41297356226346
ION SCV-004             
1 50993U 22002K   26107.15481282  .00003554  00000+0  12553-3 0  9994
2 50993  97.2889 165.9705 0006880 198.5038 161.5953 15.29834787235969
ETV-A1                  
1 51060U 22002CE  26107.26071267  .00006707  00000+0  17351-3 0  9994
2 51060  97.2924 173.7873 0005126 186.7933 173.3244 15.39400117236460
BRO-5                   
1 51061U 22002CF  26107.27239892  .00007389  00000+0  15986-3 0  9995
2 51061  97.3034 180.5343 0005383 173.9162 186.2153 15.44759025236844
LUDI TANCE 1-01A (L-SA*)
1 51284U 22007A   26107.27355347  .00000381  00000+0  46933-4 0  9993
2 51284  97.8101 115.5637 0001630  90.2082 269.9322 14.88416762229415
INSPIRESAT 1            
1 51657U 22013B   26107.06382136  .00323281  44918-4  70234-3 0  9995
2 51657  97.4338 157.9844 0004438 206.9370 153.1678 15.98306619232965
LUDI TANCE 1-01B (L-SA*)
1 51822U 22018A   26107.30716789  .00000427  00000+0  51954-4 0  9998
2 51822  97.8108 115.5899 0001572  89.2553 270.8844 14.88413377224656
2022-019D               
1 51827U 22019D   26107.26075234  .00039750  00000+0  43282-3 0  9997
2 51827  97.3671 196.8171 0003802 348.1161  12.0007 15.63322197230169
JILIN-1 GAOFEN 03D14    
1 51831U 22019H   26107.68314759  .01073045  77905-3  84195-3 0  9992
2 51831  97.3556 204.3830 0008522 264.5349  95.4965 16.14834717230684
2022-019J               
1 51832U 22019J   26107.25891399  .00000765  00000+0  38390-4 0  9999
2 51832  97.3477 171.6413 0010424  84.4606 275.7818 15.20181047228548
JILIN-1 GAOFEN 03D11    
1 51835U 22019M   26107.27013964  .00441638  85954-4  86641-3 0  9993
2 51835  97.3672 203.5915 0005735 247.9116 112.1554 16.00113276230587
JILIN-1 GAOFEN 03D15    
1 51839U 22019R   26107.32304693  .00119822  00000+0  63617-3 0  9994
2 51839  97.3669 200.8604 0001611 224.5389 135.5749 15.80168798230440
JILIN-1 GAOFEN 03D10    
1 51840U 22019S   26106.53218091  .00383611  63583-4  80274-3 0  9991
2 51840  97.3609 202.7355 0006073 232.8946 127.1777 15.98961851230480
JILIN-1 GAOFEN 03D12    
1 51841U 22019T   26106.23457994  .00119286  00000+0  62535-3 0  9991
2 51841  97.3640 199.6181 0003033 231.1224 128.9773 15.80445654230272
